[{"OBJECT_NAME":"STARLINK-31971","OBJECT_ID":"2024-106N","EPOCH":"2026-03-09T03:18:33.766848","MEAN_MOTION":15.27576691,"ECCENTRICITY":0.00012285,"INCLINATION":43.0017,"RA_OF_ASC_NODE":332.4416,"ARG_OF_PERICENTER":272.0986,"MEAN_ANOMALY":87.9725,"EPHEMERIS_TYPE":0,"CLASSIFICATION_TYPE":"U","NORAD_CAT_ID":59934,"ELEMENT_SET_NO":999,"REV_AT_EPOCH":10035,"BSTAR":-4.1123542e-5,"MEAN_MOTION_DOT":-1.393e-5,"MEAN_MOTION_DDOT":0},{"OBJECT_NAME":"OBJECT H","OBJECT_ID":"2024-205H","EPOCH":"2026-03-09T23:10:36.271776","MEAN_MOTION":15.29110994,"ECCENTRICITY":0.00105089,"INCLINATION":97.4168,"RA_OF_ASC_NODE":147.1265,"ARG_OF_PERICENTER":38.7838,"MEAN_ANOMALY":321.4154,"EPHEMERIS_TYPE":0,"CLASSIFICATION_TYPE":"U","NORAD_CAT_ID":61901,"ELEMENT_SET_NO":999,"REV_AT_EPOCH":7354,"BSTAR":0.00059497566,"MEAN_MOTION_DOT":0.00016783,"MEAN_MOTION_DDOT":0}]
